IRIDIUM 39              
1 25042U 97069D   25310.49508723  .00000787  00000+0  20004-3 0  9993
2 25042  86.3915 150.1766 0017358 184.4938 175.6114 14.49421604469575
IRIDIUM 38              
1 25043U 97069E   25310.59205889  .00000601  00000+0  19138-3 0  9993
2 25043  86.3998 173.3046 0002742  40.9230 319.2174 14.38263771466427
IRIDIUM 42              
1 25077U 97077A   25310.63417096  .00000597  00000+0  19700-3 0  9998
2 25077  86.4009 179.6258 0002436  67.3503 292.7951 14.36490425461641
IRIDIUM 44              
1 25078U 97077B   25310.55134563  .00000599  00000+0  18262-3 0  9999
2 25078  86.3981 161.2268 0000531  30.3191 329.8039 14.40384961464199
IRIDIUM 45              
1 25104U 97082A   25310.50657476  .00032935  00000+0  99267-3 0  9996
2 25104  86.3551 338.5006 0104617 154.8264 205.8138 15.28827931473733
IRIDIUM 24              
1 25105U 97082B   25310.61764101  .00000692  00000+0  20368-3 0  9994
2 25105  86.3949  19.8726 0010217 337.3801  22.6947 14.42274776463741
IRIDIUM 51              
1 25262U 98018A   25310.54957524  .00079780  00000+0  10983-2 0  9998
2 25262  86.3773 344.7123 0064997  60.5810 300.1917 15.54444450469019
